NORAD_CAT_ID,OBJECT_NAME,OBJECT_TYPE,EPOCH,MEAN_MOTION,ECCENTRICITY,INCLINATION,RA_OF_ASC_NODE,ARG_OF_PERICENTER,MEAN_ANOMALY,BSTAR,MEAN_MOTION_DOT,MEAN_MOTION_DDOT,TLE_LINE0,TLE_LINE1,TLE_LINE2,SEMIMAJOR_AXIS,PERIOD,APOGEE,PERIGEE,DECAYED
55678.0,STARLINK-5314,PAYLOAD,2024-07-13 05:16:21,14.98331078,0.0003288,69.9981,248.4195,269.2187,90.8595,2.101e-05,1.58e-06,0.0,0 STARLINK-5314,1 55678U 23021BC  24195.21969101  .00000158  00000-0  21010-4 0  9991,2 55678  69.9981 248.4195 0003288 269.2187  90.8595 14.98331078 78447,6950.19,96.107,574.34,569.769,0.0
55678.0,STARLINK-5314,PAYLOAD,2024-07-13 13:17:01,14.98332477,0.0003304,69.9982,247.578,269.6396,90.4384,3.2213e-05,2.91e-06,0.0,0 STARLINK-5314,1 55678U 23021BC  24195.55348961  .00000291  00000-0  32213-4 0  9998,2 55678  69.9982 247.5780 0003304 269.6396  90.4384 14.98332477 78797,6950.185,96.107,574.347,569.754,0.0
55678.0,STARLINK-5314,PAYLOAD,2024-07-13 21:17:41,14.98331999,0.0003305,69.9982,246.7362,269.5699,90.5082,3.1685e-05,2.85e-06,0.0,0 STARLINK-5314,1 55678U 23021BC  24195.88728986  .00000285  00000-0  31685-4 0  9998,2 55678  69.9982 246.7362 0003305 269.5699  90.5082 14.98331999 78840,6950.187,96.107,574.349,569.755,0.0
55678.0,STARLINK-5314,PAYLOAD,2024-07-14 05:18:22,14.98332364,0.0003329,69.998,245.8947,269.5988,90.4789,2.8848e-05,2.51e-06,0.0,0 STARLINK-5314,1 55678U 23021BC  24196.22108936  .00000251  00000-0  28848-4 0  9994,2 55678  69.9980 245.8947 0003329 269.5988  90.4789 14.98332364 78596,6950.186,96.107,574.364,569.737,0.0
55678.0,STARLINK-5314,PAYLOAD,2024-07-14 13:19:02,14.98333938,0.0003328,69.998,245.0531,269.7218,90.356,4.4315e-05,4.36e-06,0.0,0 STARLINK-5314,1 55678U 23021BC  24196.55488743  .00000436  00000-0  44315-4 0  9999,2 55678  69.9980 245.0531 0003328 269.7218  90.3560 14.98333938 78947,6950.181,96.107,574.359,569.733,0.0
55678.0,STARLINK-5314,PAYLOAD,2024-07-15 05:20:23,14.98328633,0.00033,69.9981,243.3698,269.7302,90.3479,3.4955e-05,3.24e-06,0.0,0 STARLINK-5314,1 55678U 23021BC  24197.22249094  .00000324  00000-0  34955-4 0  9993,2 55678  69.9981 243.3698 0003300 269.7302  90.3479 14.98328633 78740,6950.197,96.107,574.356,569.769,0.0
55678.0,STARLINK-5314,PAYLOAD,2024-07-15 13:21:03,14.98329014,0.0003328,69.9982,242.5283,269.9449,90.1329,2.6836e-05,2.27e-06,0.0,0 STARLINK-5314,1 55678U 23021BC  24197.55629133  .00000227  00000-0  26836-4 0  9996,2 55678  69.9982 242.5283 0003328 269.9449  90.1329 14.98329014 79091,6950.196,96.107,574.374,569.748,0.0
55678.0,STARLINK-5314,PAYLOAD,2024-07-15 19:45:35,14.98330885,0.0003331,69.9982,241.855,270.1101,89.9676,4.0635e-05,3.92e-06,0.0,0 STARLINK-5314,1 55678U 23021BC  24197.82332937  .00000392  00000-0  40635-4 0  9995,2 55678  69.9982 241.8550 0003331 270.1101  89.9676 14.98330885 79137,6950.19,96.107,574.37,569.74,0.0
55678.0,STARLINK-5314,PAYLOAD,2024-07-16 05:22:23,14.98332922,0.0003336,69.9981,240.845,269.9368,90.1408,5.7066e-05,5.88e-06,0.0,0 STARLINK-5314,1 55678U 23021BC  24198.22388743  .00000588  00000-0  57066-4 0  9999,2 55678  69.9981 240.8450 0003336 269.9368  90.1408 14.98332922 78893,6950.184,96.107,574.367,569.73,0.0
55678.0,STARLINK-5314,PAYLOAD,2024-07-16 13:23:04,14.9833444,0.0003323,69.9981,240.0035,269.5737,90.5041,6.0586e-05,6.3e-06,0.0,0 STARLINK-5314,1 55678U 23021BC  24198.55768572  .00000630  00000-0  60586-4 0  9996,2 55678  69.9981 240.0035 0003323 269.5737  90.5041 14.98334440 79240,6950.179,96.107,574.354,569.735,0.0
55678.0,STARLINK-5314,PAYLOAD,2024-07-17 05:24:25,14.9832566,0.0003287,69.9982,238.3204,270.2835,89.7947,2.8273e-05,2.44e-06,0.0,0 STARLINK-5314,1 55678U 23021BC  24199.22529240  .00000244  00000-0  28273-4 0  9996,2 55678  69.9982 238.3204 0003287 270.2835  89.7947 14.98325660 79043,6950.206,96.107,574.356,569.787,0.0
55678.0,STARLINK-5314,PAYLOAD,2024-07-17 11:48:57,14.98327495,0.0003286,69.9982,237.647,270.649,89.4292,4.822e-05,4.82e-06,0.0,0 STARLINK-5314,1 55678U 23021BC  24199.49233221  .00000482  00000-0  48220-4 0  9994,2 55678  69.9982 237.6470 0003286 270.6490  89.4292 14.98327495 79385,6950.201,96.107,574.349,569.782,0.0
55678.0,STARLINK-5314,PAYLOAD,2024-07-18 05:26:25,14.98334163,0.0003247,69.9982,235.7954,269.7556,90.3231,3.9698e-05,3.81e-06,0.0,0 STARLINK-5314,1 55678U 23021BC  24200.22668796  .00000381  00000-0  39698-4 0  9994,2 55678  69.9982 235.7954 0003247 269.7556  90.3231 14.98334163 79193,6950.18,96.107,574.302,569.788,0.0
55678.0,STARLINK-5314,PAYLOAD,2024-07-18 11:50:57,14.98334959,0.0003241,69.9982,235.1221,269.7186,90.3602,5.2996e-05,5.39e-06,0.0,0 STARLINK-5314,1 55678U 23021BC  24200.49372666  .00000539  00000-0  52996-4 0  9992,2 55678  69.9982 235.1221 0003241 269.7186  90.3602 14.98334959 79530,6950.178,96.107,574.295,569.79,0.0
55678.0,STARLINK-5314,PAYLOAD,2024-07-19 05:28:28,14.98318325,0.0004112,69.9974,233.2736,267.4931,92.5758,-0.00013115,-1.657e-05,0.0,0 STARLINK-5314,1 55678U 23021BC  24201.22810321 -.00001657  00000-0 -13115-3 0  9992,2 55678  69.9974 233.2736 0004112 267.4931  92.5758 14.98318325 79346,6950.229,96.108,574.952,569.236,0.0
55678.0,STARLINK-5314,PAYLOAD,2024-07-19 11:53:01,14.98304997,0.0003403,69.9981,232.5972,271.4274,88.6496,-0.00019105,-2.37e-05,0.0,0 STARLINK-5314,1 55678U 23021BC  24201.49515655 -.00002370  00000-0 -19105-3 0  9991,2 55678  69.9981 232.5972 0003403 271.4274  88.6496 14.98304997 79384,6950.27,96.109,574.5,569.77,0.0
55678.0,STARLINK-5314,PAYLOAD,2024-07-19 19:53:41,14.98307238,0.0003446,69.998,231.7557,261.0952,98.9817,-0.00017701,-2.203e-05,0.0,0 STARLINK-5314,1 55678U 23021BC  24201.82895804 -.00002203  00000-0 -17701-3 0  9990,2 55678  69.9980 231.7557 0003446 261.0952  98.9817 14.98307238 79739,6950.263,96.108,574.523,569.733,0.0
55678.0,STARLINK-5314,PAYLOAD,2024-07-20 05:30:28,14.983274,0.0004049,69.9966,230.7447,268.6112,91.4583,-1.781e-05,-3.06e-06,0.0,0 STARLINK-5314,1 55678U 23021BC  24202.22950207 -.00000306  00000-0 -17810-4 0  9998,2 55678  69.9966 230.7447 0004049 268.6112  91.4583 14.98327400 79495,6950.201,96.107,574.88,569.252,0.0
55678.0,STARLINK-5314,PAYLOAD,2024-07-20 11:55:00,14.98336005,0.000381,69.9973,230.0714,268.2141,91.8581,5.2067e-05,5.28e-06,0.0,0 STARLINK-5314,1 55678U 23021BC  24202.49653588  .00000528  00000-0  52067-4 0  9996,2 55678  69.9973 230.0714 0003810 268.2141  91.8581 14.98336005 79534,6950.174,96.107,574.687,569.391,0.0
55678.0,STARLINK-5314,PAYLOAD,2024-07-21 11:57:01,14.98334387,0.0003862,69.9977,227.5465,267.4466,92.6251,0.00045069,5.289e-05,0.0,0 STARLINK-5314,1 55678U 23021BC  24203.49793415  .00005289  00000-0  45069-3 0  9993,2 55678  69.9977 227.5465 0003862 267.4466  92.6251 14.98334387 79680,6950.179,96.107,574.728,569.36,0.0
55678.0,STARLINK-5314,PAYLOAD,2024-07-22 10:22:53,14.98345979,0.0003689,69.9986,225.1905,266.4388,93.6349,0.00020046,2.301e-05,0.0,0 STARLINK-5314,1 55678U 23021BC  24204.43256791  .00002301  00000-0  20046-3 0  9999,2 55678  69.9986 225.1905 0003689 266.4388  93.6349 14.98345979 80121,6950.143,96.106,574.572,569.445,0.0
55678.0,STARLINK-5314,PAYLOAD,2024-07-23 04:00:22,14.98344498,0.000353,69.9994,223.3392,263.2069,96.8688,9.4039e-05,1.03e-05,0.0,0 STARLINK-5314,1 55678U 23021BC  24205.16692473  .00001030  00000-0  94039-4 0  9993,2 55678  69.9994 223.3392 0003530 263.2069  96.8688 14.98344498 79939,6950.148,96.106,574.466,569.56,0.0
55678.0,STARLINK-5314,PAYLOAD,2024-07-23 10:24:53,14.98354962,0.000338,69.9996,222.6658,259.8682,100.2096,0.00021872,2.519e-05,0.0,0 STARLINK-5314,1 55678U 23021BC  24205.43395251  .00002519  00000-0  21872-3 0  9994,2 55678  69.9996 222.6658 0003380 259.8682 100.2096 14.98354962 79977,6950.116,96.105,574.33,569.632,0.0
55678.0,STARLINK-5314,PAYLOAD,2024-07-24 05:38:31,14.98332592,0.0003383,70.0003,220.6481,261.1755,98.9021,-3.2421e-05,-4.8e-06,0.0,0 STARLINK-5314,1 55678U 23021BC  24206.23508494 -.00000480  00000-0 -32421-4 0  9998,2 55678  70.0003 220.6481 0003383 261.1755  98.9021 14.98332592 80092,6950.185,96.107,574.401,569.699,0.0
55678.0,STARLINK-5314,PAYLOAD,2024-07-24 10:26:56,14.98323197,0.0003077,70.0005,220.1416,256.819,103.2626,-0.00012862,-1.627e-05,0.0,0 STARLINK-5314,1 55678U 23021BC  24206.43537249 -.00001627  00000-0 -12862-3 0  9990,2 55678  70.0005 220.1416 0003077 256.8190 103.2626 14.98323197 80127,6950.214,96.107,574.218,569.94,0.0
55678.0,STARLINK-5314,PAYLOAD,2024-07-25 05:40:32,14.98335237,0.0003486,69.9993,218.1209,264.0625,96.0136,-0.00014627,-1.838e-05,0.0,0 STARLINK-5314,1 55678U 23021BC  24207.23648490 -.00001838  00000-0 -14627-3 0  9995,2 55678  69.9993 218.1209 0003486 264.0625  96.0136 14.98335237 80241,6950.177,96.107,574.465,569.619,0.0
55678.0,STARLINK-5314,PAYLOAD,2024-07-25 10:28:56,14.98333668,0.0003513,69.9993,217.6161,264.8809,95.1949,-0.00015875,-1.987e-05,0.0,0 STARLINK-5314,1 55678U 23021BC  24207.43676565 -.00001987  00000-0 -15875-3 0  9992,2 55678  69.9993 217.6161 0003513 264.8809  95.1949 14.98333668 80579,6950.182,96.107,574.488,569.605,0.0
55678.0,STARLINK-5314,PAYLOAD,2024-07-26 08:54:49,14.98325971,0.0003713,69.9987,215.2591,268.1405,91.9329,0.00012376,1.384e-05,0.0,0 STARLINK-5314,1 55678U 23021BC  24208.37140460  .00001384  00000-0  12376-3 0  9998,2 55678  69.9987 215.2591 0003713 268.1405  91.9329 14.98325971 80411,6950.205,96.107,574.651,569.49,0.0
55678.0,STARLINK-5314,PAYLOAD,2024-07-27 05:44:33,14.98331732,0.0003711,69.9988,213.0711,268.3594,91.714,0.00010944,1.213e-05,0.0,0 STARLINK-5314,1 55678U 23021BC  24209.23928230  .00001213  00000-0  10944-3 0  9993,2 55678  69.9988 213.0711 0003711 268.3594  91.7140 14.98331732 80849,6950.188,96.107,574.632,569.473,0.0
55678.0,STARLINK-5314,PAYLOAD,2024-07-27 10:32:57,14.98334383,0.0003694,69.9988,212.5661,268.248,91.8256,0.00013383,1.504e-05,0.0,0 STARLINK-5314,1 55678U 23021BC  24209.43955957  .00001504  00000-0  13383-3 0  9994,2 55678  69.9988 212.5661 0003694 268.2480  91.8256 14.98334383 80574,6950.179,96.107,574.612,569.477,0.0
